NORAD_CAT_ID,OBJECT_NAME,OBJECT_TYPE,EPOCH,MEAN_MOTION,ECCENTRICITY,INCLINATION,RA_OF_ASC_NODE,ARG_OF_PERICENTER,MEAN_ANOMALY,BSTAR,MEAN_MOTION_DOT,MEAN_MOTION_DDOT,TLE_LINE0,TLE_LINE1,TLE_LINE2,SEMIMAJOR_AXIS,PERIOD,APOGEE,PERIGEE,DECAYED
53934.0,STARLINK-4775,PAYLOAD,2023-06-20 11:30:53,15.08839522,0.0001187,53.2176,77.8669,86.4485,273.6643,0.00011065,1.474e-05,0.0,0 STARLINK-4775,1 53934U 22119BA  23171.47978168  .00001474  00000-0  11065-3 0  9995,2 53934  53.2176  77.8669 0001187  86.4485 273.6643 15.08839522 42117,6917.882,95.438,540.568,538.926,0.0
53934.0,STARLINK-4775,PAYLOAD,2023-06-20 21:03:11,15.08844025,0.0001176,53.2176,76.0817,88.671,271.4417,5.5754e-05,6e-06,0.0,0 STARLINK-4775,1 53934U 22119BA  23171.87721963  .00000600  00000-0  55754-4 0  9992,2 53934  53.2176  76.0817 0001176  88.6710 271.4417 15.08844025 42171,6917.868,95.437,540.547,538.92,0.0
53934.0,STARLINK-4775,PAYLOAD,2023-06-21 00:13:57,15.0884778,0.0001109,53.218,75.4859,96.2165,263.8954,5.0501e-05,5.16e-06,0.0,0 STARLINK-4775,1 53934U 22119BA  23172.00969649  .00000516  00000-0  50501-4 0  9994,2 53934  53.2180  75.4859 0001109  96.2165 263.8954 15.08847780 42194,6917.857,95.437,540.489,538.954,0.0
53934.0,STARLINK-4775,PAYLOAD,2023-06-22 00:04:45,15.08840701,0.0001146,53.2176,71.025,94.2731,265.8392,8.6493e-05,1.089e-05,0.0,0 STARLINK-4775,1 53934U 22119BA  23173.00330007  .00001089  00000-0  86493-4 0  9990,2 53934  53.2176  71.0250 0001146  94.2731 265.8392 15.08840701 41906,6917.878,95.438,540.536,538.95,0.0
53934.0,STARLINK-4775,PAYLOAD,2023-06-23 09:27:50,15.08846652,0.0001172,53.218,64.7862,103.0431,257.0692,1.416e-05,-6.2e-07,0.0,0 STARLINK-4775,1 53934U 22119BA  23174.39433772 -.00000062  00000-0  14160-4 0  9999,2 53934  53.2180  64.7862 0001172 103.0431 257.0692 15.08846652 42115,6917.86,95.437,540.536,538.914,0.0
53934.0,STARLINK-4775,PAYLOAD,2023-06-24 01:21:42,15.08842256,0.0001254,53.2183,61.8101,97.9012,262.2122,0.00010702,1.416e-05,0.0,0 STARLINK-4775,1 53934U 22119BA  23175.05674184  .00001416  00000-0  10702-3 0  9997,2 53934  53.2183  61.8101 0001254  97.9012 262.2122 15.08842256 42212,6917.873,95.437,540.606,538.871,0.0
53934.0,STARLINK-4775,PAYLOAD,2023-06-25 09:09:25,15.08839691,0.0001364,53.217,55.8657,101.1793,258.9352,3.3043e-05,2.38e-06,0.0,0 STARLINK-4775,1 53934U 22119BA  23176.38154301  .00000238  00000-0  33043-4 0  9993,2 53934  53.2170  55.8657 0001364 101.1793 258.9352 15.08839691 42411,6917.881,95.438,540.69,538.803,0.0
53934.0,STARLINK-4775,PAYLOAD,2023-06-26 15:21:45,15.08836003,0.0001425,53.2176,50.2119,87.6672,272.4483,3.9149e-05,3.35e-06,0.0,0 STARLINK-4775,1 53934U 22119BA  23177.64011148  .00000335  00000-0  39149-4 0  9995,2 53934  53.2176  50.2119 0001425  87.6672 272.4483 15.08836003 42602,6917.893,95.438,540.743,538.772,0.0
53934.0,STARLINK-4775,PAYLOAD,2023-06-27 19:58:41,15.08841539,0.000107,53.2178,44.8578,101.877,258.2342,0.00017603,2.515e-05,0.0,0 STARLINK-4775,1 53934U 22119BA  23178.83242509  .00002515  00000-0  17603-3 0  9996,2 53934  53.2178  44.8578 0001070 101.8770 258.2342 15.08841539 42781,6917.876,95.437,540.481,539.0,0.0
53934.0,STARLINK-4775,PAYLOAD,2023-06-28 18:14:05,15.08838016,0.0001157,53.2166,40.6948,93.4906,266.6218,0.00013008,1.783e-05,0.0,0 STARLINK-4775,1 53934U 22119BA  23179.75979096  .00001783  00000-0  13008-3 0  9997,2 53934  53.2166  40.6948 0001157  93.4906 266.6218 15.08838016 42923,6917.886,95.438,540.552,538.951,0.0
53934.0,STARLINK-4775,PAYLOAD,2023-06-29 19:40:16,15.08839916,0.0001231,53.2182,35.9383,95.687,264.4262,2.4245e-05,9.8e-07,0.0,0 STARLINK-4775,1 53934U 22119BA  23180.81963113  .00000098  00000-0  24245-4 0  9993,2 53934  53.2182  35.9383 0001231  95.6870 264.4262 15.08839916 43081,6917.881,95.438,540.597,538.894,0.0
53934.0,STARLINK-4775,PAYLOAD,2023-07-01 00:17:12,15.08842034,0.0001059,53.2174,30.5854,90.1478,269.9636,6.2677e-05,7.1e-06,0.0,0 STARLINK-4775,1 53934U 22119BA  23182.01194879  .00000710  00000-0  62677-4 0  9994,2 53934  53.2174  30.5854 0001059  90.1478 269.9636 15.08842034 43268,6917.874,95.437,540.472,539.007,0.0
53934.0,STARLINK-4775,PAYLOAD,2023-07-01 17:46:27,15.08834263,0.0001017,53.2172,27.314,88.0062,272.1047,-1.816e-06,-3.17e-06,0.0,0 STARLINK-4775,1 53934U 22119BA  23182.74059789 -.00000317  00000-0 -18160-5 0  9998,2 53934  53.2172  27.3140 0001017  88.0062 272.1047 15.08834263 43376,6917.898,95.438,540.466,539.059,0.0
53934.0,STARLINK-4775,PAYLOAD,2023-07-02 23:58:46,15.08846595,9.21e-05,53.217,21.6631,85.1283,274.9815,0.00010126,1.324e-05,0.0,0 STARLINK-4775,1 53934U 22119BA  23183.99914831  .00001324  00000-0  10126-3 0  9993,2 53934  53.2170  21.6631 0000921  85.1283 274.9815 15.08846595 43567,6917.86,95.437,540.362,539.088,0.0
53934.0,STARLINK-4775,PAYLOAD,2023-07-03 06:20:19,15.08843876,0.0001179,53.2187,20.4738,87.5228,272.59,-3.0544e-05,-7.74e-06,0.0,0 STARLINK-4775,1 53934U 22119BA  23184.26411386 -.00000774  00000-0 -30544-4 0  9998,2 53934  53.2187  20.4738 0001179  87.5228 272.5900 15.08843876 43604,6917.869,95.437,540.549,538.918,0.0
53934.0,STARLINK-4775,PAYLOAD,2023-07-04 12:32:39,15.08839978,0.0001009,53.2173,14.8255,81.9527,278.158,3.9439e-05,3.4e-06,0.0,0 STARLINK-4775,1 53934U 22119BA  23185.52267549  .00000340  00000-0  39439-4 0  9997,2 53934  53.2173  14.8255 0001009  81.9527 278.1580 15.08839978 43796,6917.88,95.438,540.443,539.047,0.0
53934.0,STARLINK-4775,PAYLOAD,2023-07-05 21:55:44,15.08841252,0.0001084,53.2173,8.5786,88.5555,271.5561,3.9688e-05,3.44e-06,0.0,0 STARLINK-4775,1 53934U 22119BA  23186.91371428  .00000344  00000-0  39688-4 0  9993,2 53934  53.2173   8.5786 0001084  88.5555 271.5561 15.08841252 44001,6917.877,95.437,540.491,538.992,0.0
53934.0,STARLINK-4775,PAYLOAD,2023-07-07 10:29:36,15.08844999,0.0001034,53.217,1.7395,85.3647,274.7464,0.00010128,1.325e-05,0.0,0 STARLINK-4775,1 53934U 22119BA  23188.43722918  .00001325  00000-0  10128-3 0  9993,2 53934  53.2170   1.7395 0001034  85.3647 274.7464 15.08844999 44234,6917.865,95.437,540.445,539.015,0.0
53934.0,STARLINK-4775,PAYLOAD,2023-07-07 18:26:32,15.08842562,7.97e-05,53.2168,0.2529,81.7922,278.3161,8.4531e-05,1.058e-05,0.0,0 STARLINK-4775,1 53934U 22119BA  23188.76843333  .00001058  00000-0  84531-4 0  9997,2 53934  53.2168   0.2529 0000797  81.7922 278.3161 15.08842562 44288,6917.873,95.437,540.289,539.186,0.0
53934.0,STARLINK-4775,PAYLOAD,2023-07-08 10:20:24,15.08836311,0.0001023,53.2169,357.28,88.1459,271.9651,3.7257e-05,3.05e-06,0.0,0 STARLINK-4775,1 53934U 22119BA  23189.43083866  .00000305  00000-0  37257-4 0  9996,2 53934  53.2169 357.2800 0001023  88.1459 271.9651 15.08836311 44384,6917.892,95.438,540.464,539.049,0.0
53934.0,STARLINK-4775,PAYLOAD,2023-07-09 11:46:35,15.08829029,8.58e-05,53.2186,352.5232,94.0482,266.0608,-4.3564e-05,-9.81e-06,0.0,0 STARLINK-4775,1 53934U 22119BA  23190.49068717 -.00000981  00000-0 -43564-4 0  9992,2 53934  53.2186 352.5232 0000858  94.0482 266.0608 15.08829029 44540,6917.914,95.438,540.372,539.185,0.0
53934.0,STARLINK-4775,PAYLOAD,2023-07-10 03:40:26,15.08838372,9.95e-05,53.2179,349.5489,90.9038,269.2068,-3.8531e-06,-3.49e-06,0.0,0 STARLINK-4775,1 53934U 22119BA  23191.15308211 -.00000349  00000-0 -38531-5 0  9999,2 53934  53.2179 349.5489 0000995  90.9038 269.2068 15.08838372 44643,6917.885,95.438,540.439,539.062,0.0
53934.0,STARLINK-4775,PAYLOAD,2023-07-10 22:45:03,15.08839782,0.0001006,53.2179,345.9802,92.5113,267.5994,0.00023148,3.398e-05,0.0,0 STARLINK-4775,1 53934U 22119BA  23191.94795522  .00003398  00000-0  23148-3 0  9992,2 53934  53.2179 345.9802 0001006  92.5113 267.5994 15.08839782 44766,6917.881,95.438,540.442,539.05,0.0
53934.0,STARLINK-4775,PAYLOAD,2023-07-11 09:52:45,15.088327,7.25e-05,53.2181,343.8982,94.4494,265.6581,0.00010336,1.357e-05,0.0,0 STARLINK-4775,1 53934U 22119BA  23192.41164186  .00001357  00000-0  10336-3 0  9999,2 53934  53.2181 343.8982 0000725  94.4494 265.6581 15.08832700 44837,6917.903,95.438,540.269,539.266,0.0
53934.0,STARLINK-4775,PAYLOAD,2023-07-12 09:43:32,15.08840645,0.0001178,53.2179,339.4373,95.0961,265.0165,4.9582e-05,5.01e-06,0.0,0 STARLINK-4775,1 53934U 22119BA  23193.40523915  .00000501  00000-0  49582-4 0  9994,2 53934  53.2179 339.4373 0001178  95.0961 265.0165 15.08840645 44983,6917.878,95.438,540.558,538.928,0.0
53934.0,STARLINK-4775,PAYLOAD,2023-07-13 15:55:52,15.0883942,0.0001046,53.2184,333.7886,94.11,266.0012,6.8981e-06,-1.78e-06,0.0,0 STARLINK-4775,1 53934U 22119BA  23194.66380004 -.00000178  00000-0  68981-5 0  9999,2 53934  53.2184 333.7886 0001046  94.1100 266.0012 15.08839420 45177,6917.882,95.438,540.471,539.024,0.0
53934.0,STARLINK-4775,PAYLOAD,2023-07-14 09:25:07,15.08824214,0.0001144,53.2183,330.5181,92.3364,267.7759,0.00019902,2.88e-05,0.0,0 STARLINK-4775,1 53934U 22119BA  23195.39244472  .00002880  00000-0  19902-3 0  9996,2 53934  53.2183 330.5181 0001144  92.3364 267.7759 15.08824214 45283,6917.929,95.439,540.585,539.002,0.0
53934.0,STARLINK-4775,PAYLOAD,2023-07-14 15:46:39,15.08832064,0.0001108,53.2176,329.3282,93.9521,266.1598,0.00023268,3.416e-05,0.0,0 STARLINK-4775,1 53934U 22119BA  23195.65740046  .00003416  00000-0  23268-3 0  9999,2 53934  53.2176 329.3282 0001108  93.9521 266.1598 15.08832064 45326,6917.905,95.438,540.536,539.003,0.0
53934.0,STARLINK-4775,PAYLOAD,2023-07-14 18:57:24,15.08867818,0.0001152,53.2171,328.7328,102.4372,257.6749,-0.00020969,-3.626e-05,0.0,0 STARLINK-4775,1 53934U 22119BA  23195.78986684 -.00003626  00000-0 -20969-3 0  9993,2 53934  53.2171 328.7328 0001152 102.4372 257.6749 15.08867818 45344,6917.795,95.436,540.457,538.863,0.0
53934.0,STARLINK-4775,PAYLOAD,2023-07-15 18:48:12,15.08838383,0.000112,53.2173,324.2723,86.5218,273.5902,7.3724e-05,8.86e-06,0.0,0 STARLINK-4775,1 53934U 22119BA  23196.78348339  .00000886  00000-0  73724-4 0  9994,2 53934  53.2173 324.2723 0001120  86.5218 273.5902 15.08838383 45491,6917.885,95.438,540.525,538.976,0.0
